stk.v.12.0

# WrittenBy    STK_v12.10.0

BEGIN Ephemeris

    NumberOfEphemerisPoints		 34

    ScenarioEpoch		 1 Jun 2020 12:00:00.000000

# Epoch in JDate format: ...
# Epoch in YYDDD format: ...


    InterpolationMethod		 Lagrange

    InterpolationSamplesM1		 5
    InterpolationOrder      5

    CentralBody		 Earth

    CoordinateSystem		 ICRF

    DistanceUnit Kilometers

    BEGIN SegmentBoundaryTimes

         0.0
         1980.0

    END SegmentBoundaryTimes

# Time of first point: ...

    EphemerisTimePosVel

        0.0    2.865691508757101e+02   -2.139941760551576e+04    1.634195486175098e+04    2.767385843060133e+00    1.626117031305496e+00    2.072579173220514e+00
       60.0    4.525991399948996e+02   -2.130106534115885e+04    1.646570790840699e+04    2.766933135431601e+00    1.652268219511481e+00    2.052482913456063e+00
      120.0    6.185958681347711e+02   -2.120114761297122e+04    1.658825062632493e+04    2.766277061803237e+00    1.678298862536459e+00    2.032235099098199e+00
      180.0    7.845471342631230e+02   -2.109967170894462e+04    1.670957396457769e+04    2.765417653988115e+00    1.704207118011987e+00    2.011837146127448e+00
      240.0    9.504407396467855e+02   -2.099664502738599e+04    1.682966895749312e+04    2.764354956891274e+00    1.729991151180912e+00    1.991290480394419e+00
      300.0    1.116264488637525e+03   -2.089207507645835e+04    1.694852672524347e+04    2.763089028511356e+00    1.755649134995042e+00    1.970596537548931e+00
      360.0    1.282006189458394e+03   -2.078596947371456e+04    1.706613847443238e+04    2.761619939942118e+00    1.781179250212834e+00    1.949756762968524e+00
      420.0    1.447653654988591e+03   -2.067833594562726e+04    1.718249549867490e+04    2.759947775373428e+00    1.806579685496637e+00    1.928772611687142e+00
      480.0    1.613194703550546e+03   -2.056918232711051e+04    1.729758917917622e+04    2.758072632092082e+00    1.831848637510238e+00    1.907645548322970e+00
      540.0    1.778617159693725e+03   -2.045851656103759e+04    1.741141098530398e+04    2.755994620482352e+00    1.856984311015775e+00    1.886377047006344e+00
      600.0    1.943908854981666e+03   -2.034634669775195e+04    1.752395247515699e+04    2.753713864026007e+00    1.881984918971006e+00    1.864968591307182e+00
      660.0    2.109057628778859e+03   -2.023268089457283e+04    1.763520529612921e+04    2.751230499301966e+00    1.906848682626447e+00    1.843421674162187e+00
      720.0    2.274051329034716e+03   -2.011752741529440e+04    1.774516118547029e+04    2.748544675985967e+00    1.931573831622043e+00    1.821737797801546e+00
      780.0    2.438877813069923e+03   -2.000089462968017e+04    1.785381197084017e+04    2.745656556849537e+00    1.956158604084042e+00    1.799918473675567e+00
      840.0    2.603524948362620e+03   -1.988279101295001e+04    1.796114957086129e+04    2.742566317758839e+00    1.980601246721801e+00    1.777965222380618e+00
      900.0    2.767980613335725e+03   -1.976322514526334e+04    1.806716599566366e+04    2.739274147672743e+00    2.004900014924627e+00    1.755879573585231e+00
      960.0    2.932232698137085e+03   -1.964220571119486e+04    1.817185334742857e+04    2.735780248641622e+00    2.029053172857611e+00    1.733663065955271e+00
     1020.0    3.096269105431891e+03   -1.951974149920488e+04    1.827520382092538e+04    2.732084835804278e+00    2.053058993559044e+00    1.711317247079210e+00
     1080.0    3.260077751181984e+03   -1.939584140110503e+04    1.837720970404466e+04    2.728188137385934e+00    2.076915759035981e+00    1.688843673392894e+00
     1140.0    3.423646565436123e+03   -1.927051441151593e+04    1.847786337832742e+04    2.724090394694776e+00    2.100621760361278e+00    1.666243910103839e+00
     1200.0    3.586963493108391e+03   -1.914376962732207e+04    1.857715731948845e+04    2.719791862119260e+00    2.124175297768900e+00    1.643519531115388e+00
     1260.0    3.750016494771663e+03   -1.901561624711714e+04    1.867508409793656e+04    2.715292807123546e+00    2.147574680751325e+00    1.620672118950256e+00
     1320.0    3.912793547433732e+03   -1.888606357064782e+04    1.877163637928892e+04    2.710593510244299e+00    2.170818228154446e+00    1.597703264673929e+00
     1380.0    4.075282645326299e+03   -1.875512099824815e+04    1.886680692488184e+04    2.705694265085827e+00    2.193904268274274e+00    1.574614567817467e+00
     1440.0    4.237471800687261e+03   -1.862279803027057e+04    1.896058859227613e+04    2.700595378315440e+00    2.216831138952647e+00    1.551407636300098e+00
     1500.0    4.399349044546290e+03   -1.848910426650926e+04    1.905297433575851e+04    2.695297169658135e+00    2.239597187673389e+00    1.528084086351264e+00
     1560.0    4.560902427504659e+03   -1.835404940562049e+04    1.914395720683710e+04    2.689799971891378e+00    2.262200771657640e+00    1.504645542432533e+00
     1620.0    4.722120020521304e+03   -1.821764324453373e+04    1.923353035473425e+04    2.684104130839011e+00    2.284640257960044e+00    1.481093637158672e+00
     1680.0    4.882989915694749e+03   -1.807989567785963e+04    1.932168702687244e+04    2.678210005364914e+00    2.306914023564350e+00    1.457430011218768e+00
     1740.0    5.043500227045102e+03   -1.794081669729134e+04    1.940842056935685e+04    2.672117967366429e+00    2.329020455479021e+00    1.433656313296666e+00
     1800.0    5.203639091295316e+03   -1.780041639100010e+04    1.949372442745274e+04    2.665828401767386e+00    2.350957950832713e+00    1.409774199991033e+00
     1860.0    5.363394668653463e+03   -1.765870494302515e+04    1.957759214605790e+04    2.659341706510532e+00    2.372724916969930e+00    1.385785335735045e+00
     1920.0    5.522755143593176e+03   -1.751569263265783e+04    1.966001737017033e+04    2.652658292549754e+00    2.394319771546411e+00    1.361691392715614e+00
     1980.0    5.681708725634786e+03   -1.737138983382022e+04    1.974099384535106e+04    2.645778583841705e+00    2.415740942624633e+00    1.337494050792231e+00
    END EphemerisTimePosVel
END Ephemeris
